CCSDS_OMM_VERS,COMMENT,CREATION_DATE,ORIGINATOR,OBJECT_NAME,OBJECT_ID,CENTER_NAME,REF_FRAME,TIME_SYSTEM,MEAN_ELEMENT_THEORY,EPOCH,MEAN_MOTION,ECCENTRICITY,INCLINATION,RA_OF_ASC_NODE,ARG_OF_PERICENTER,MEAN_ANOMALY,EPHEMERIS_TYPE,CLASSIFICATION_TYPE,NORAD_CAT_ID,ELEMENT_SET_NO,REV_AT_EPOCH,BSTAR,MEAN_MOTION_DOT,MEAN_MOTION_DDOT,SEMIMAJOR_AXIS,PERIOD,APOAPSIS,PERIAPSIS,OBJECT_TYPE,RCS_SIZE,COUNTRY_CODE,LAUNCH_DATE,SITE,DECAY_DATE,FILE,GP_ID,TLE_LINE0,TLE_LINE1,TLE_LINE2,,,,,,,AVG_ALTITUDE,,AVG_VELOCITY
2,GENERATED VIA SPACE-TRACK.ORG API,2022-06-03T06:36:13,18 SPCS,GLOBALSTAR M093,2013-005B,EARTH,TEME,UTC,SGP4,2022-06-03T04:12:22.361184,12.62267511,9.27E-05,51.983,48.5056,35.6701,324.4227,0,U,39073,999,43070,5.93E-05,-9.30E-07,0,7791.736,114.08,1414.323,1412.879,PAYLOAD,LARGE,GLOB,2/6/2013,TTMTR,,3478094,205216787,0 GLOBALSTAR M093,1 39073U 13005B   22154.17525881 -.00000093  00000-0  59306-4 0  9992,2 39073  51.9830  48.5056 0000927  35.6701 324.4227 12.62267511430709,,,,,,,1421.736,,7.152400171
2,GENERATED VIA SPACE-TRACK.ORG API,2022-06-03T02:31:39,18 SPCS,GLOBALSTAR M094,2013-005C,EARTH,TEME,UTC,SGP4,2022-06-02T18:42:42.610176,12.62267533,8.33E-05,51.9969,322.9869,94.1818,265.9144,0,U,39074,999,43214,6.75E-07,-1.04E-06,0,7791.736,114.08,1414.25,1412.952,PAYLOAD,LARGE,GLOB,2/6/2013,TTMTR,,3477983,205205460,0 GLOBALSTAR M094,1 39074U 13005C   22153.77965984 -.00000104  00000-0  67521-6 0  9993,2 39074  51.9969 322.9869 0000833  94.1818 265.9144 12.62267533432140,,,,,,,1421.736,,7.152400171
2,GENERATED VIA SPACE-TRACK.ORG API,2022-06-03T06:36:13,18 SPCS,GLOBALSTAR M096,2013-005D,EARTH,TEME,UTC,SGP4,2022-06-03T00:43:59.581344,12.62268543,9.24E-05,52.0096,9.8701,65.28,294.8163,0,U,39075,999,43144,2.84E-05,-9.90E-07,0,7791.732,114.08,1414.317,1412.877,PAYLOAD,LARGE,GLOB,2/6/2013,TTMTR,,3478096,205216817,0 GLOBALSTAR M096,1 39075U 13005D   22154.03055071 -.00000099  00000-0  28413-4 0  9999,2 39075  52.0096   9.8701 0000924  65.2800 294.8163 12.62268543431447,,,,,,,1421.732,,7.152402007
2,GENERATED VIA SPACE-TRACK.ORG API,2022-06-03T06:36:13,18 SPCS,GLOBALSTAR M078,2013-005E,EARTH,TEME,UTC,SGP4,2022-06-02T22:11:07.501632,12.62269613,3.56E-05,51.9877,96.2073,267.6127,92.4698,0,U,39076,999,42991,-8.01E-05,-1.18E-06,0,7791.728,114.08,1413.87,1413.315,PAYLOAD,LARGE,GLOB,2/6/2013,TTMTR,,3478090,205217217,0 GLOBALSTAR M078,1 39076U 13005E   22153.92439238 -.00000118  00000-0 -80138-4 0  9993,2 39076  51.9877  96.2073 0000356 267.6127  92.4698 12.62269613429917,,,,,,,1421.728,,7.152403843
2,GENERATED VIA SPACE-TRACK.ORG API,2022-06-03T02:31:39,18 SPCS,GLOBALSTAR M095,2013-005F,EARTH,TEME,UTC,SGP4,2022-06-02T19:01:35.921568,12.62269092,5.58E-05,51.9799,94.3585,334.9175,25.1665,0,U,39077,999,42954,-5.19E-05,-1.13E-06,0,7791.73,114.08,1414.029,1413.16,PAYLOAD,LARGE,GLOB,2/6/2013,TTMTR,,3477983,205205209,0 GLOBALSTAR M095,1 39077U 13005F   22153.79277687 -.00000113  00000-0 -51876-4 0  9999,2 39077  51.9799  94.3585 0000558 334.9175  25.1665 12.62269092429540,,,,,,,1421.73,,7.152402925
2,GENERATED VIA SPACE-TRACK.ORG API,2022-06-03T06:46:12,18 SPCS,LANDSAT 8,2013-008A,EARTH,TEME,UTC,SGP4,2022-06-03T03:23:18.656160,14.57096453,0.0001322,98.2227,224.6533,96.7726,263.3622,0,U,39084,999,49491,5.08E-05,1.84E-06,0,7080.702,98.827,703.503,701.631,PAYLOAD,LARGE,US,2/11/2013,AFWTR,,3478187,205219190,0 LANDSAT 8,1 39084U 13008A   22154.14118815  .00000184  00000-0  50843-4 0  9996,2 39084  98.2227 224.6533 0001322  96.7726 263.3622 14.57096453494911,,,,,,,710.702,,7.502927693
2,GENERATED VIA SPACE-TRACK.ORG API,2022-06-03T02:31:39,18 SPCS,SARAL,2013-009A,EARTH,TEME,UTC,SGP4,2022-06-02T20:33:59.838912,14.32043974,8.55E-05,98.5475,339.7143,26.1834,333.9392,0,U,39086,999,48439,2.81E-05,3.20E-07,0,7163.044,100.556,785.521,784.296,PAYLOAD,LARGE,IND,2/25/2013,SRI,,3477983,205205710,0 SARAL,1 39086U 13009A   22153.85694258  .00000032  00000-0  28091-4 0  9998,2 39086  98.5475 339.7143 0000855  26.1834 333.9392 14.32043974484395,,,,,,,793.044,,7.459678494
2,GENERATED VIA SPACE-TRACK.ORG API,2022-06-03T02:31:39,18 SPCS,SAPPHIRE,2013-009C,EARTH,TEME,UTC,SGP4,2022-06-02T20:04:42.257280,14.34299436,0.0010665,98.4276,349.9681,325.718,34.3316,0,U,39088,999,48502,3.32E-05,5.00E-07,0,7155.532,100.397,785.029,769.766,PAYLOAD,MEDIUM,CA,2/25/2013,SRI,,3477983,205205210,0 SAPPHIRE,1 39088U 13009C   22153.83660020  .00000050  00000-0  33186-4 0  9999,2 39088  98.4276 349.9681 0010665 325.7180  34.3316 14.34299436485024,,,,,,,785.532,,7.463593116
2,GENERATED VIA SPACE-TRACK.ORG API,2022-06-03T02:31:39,18 SPCS,NEOSSAT,2013-009D,EARTH,TEME,UTC,SGP4,2022-06-02T19:30:11.170656,14.34660185,0.0010614,98.4233,350.4858,326.5735,33.4779,0,U,39089,999,48511,4.41E-05,8.20E-07,0,7154.333,100.372,783.792,768.604,PAYLOAD,MEDIUM,CA,2/25/2013,SRI,,3477983,205205962,0 NEOSSAT,1 39089U 13009D   22153.81262929  .00000082  00000-0  44061-4 0  9993,2 39089  98.4233 350.4858 0010614 326.5735  33.4779 14.34660185485116,,,,,,,784.333,,7.464218504
2,GENERATED VIA SPACE-TRACK.ORG API,2022-06-03T07:06:16,18 SPCS,STRAND 1,2013-009E,EARTH,TEME,UTC,SGP4,2022-06-03T03:32:22.483680,14.35295155,0.00083,98.4053,352.6579,320.6194,39.4387,0,U,39090,999,48536,5.05E-05,1.02E-06,0,7152.223,100.328,780.024,768.151,PAYLOAD,SMALL,UK,2/25/2013,SRI,,3478391,205224435,0 STRAND 1,1 39090U 13009E   22154.14748245  .00000102  00000-0  50484-4 0  9991,2 39090  98.4053 352.6579 0008300 320.6194  39.4387 14.35295155485365,,,,,,,782.223,,7.465319444
2,GENERATED VIA SPACE-TRACK.ORG API,2022-06-03T07:06:16,18 SPCS,BRITE-A TUGSAT-1,2013-009F,EARTH,TEME,UTC,SGP4,2022-06-03T03:10:08.187744,14.35271194,0.0009757,98.4067,351.8093,326.7582,33.299,0,U,39091,999,48538,3.53E-05,5.80E-07,0,7152.302,100.329,781.146,767.189,PAYLOAD,MEDIUM,ASRA,2/25/2013,SRI,,3478393,205224460,0 BRITE-A TUGSAT-1,1 39091U 13009F   22154.13203921  .00000058  00000-0  35288-4 0  9993,2 39091  98.4067 351.8093 0009757 326.7582  33.2990 14.35271194485389,,,,,,,782.302,,7.465278215
2,GENERATED VIA SPACE-TRACK.ORG API,2022-06-02T17:55:29,18 SPCS,SOMP,2013-015E,EARTH,TEME,UTC,SGP4,2022-06-02T07:36:16.100928,15.28158293,0.0034546,64.8613,111.554,282.9147,76.8127,0,U,39134,999,50454,0.00032244,8.84E-05,0,6859.455,94.231,505.017,457.623,PAYLOAD,SMALL,GER,4/19/2013,TTMTR,,3477482,205169883,0 SOMP,1 39134U 13015E   22153.31685302  .00008838  00000-0  32244-3 0  9996,2 39134  64.8613 111.5540 0034546 282.9147  76.8127 15.28158293504545,,,,,,,489.455,,7.622968302
2,GENERATED VIA SPACE-TRACK.ORG API,2022-06-03T02:31:39,18 SPCS,BEESAT 3,2013-015F,EARTH,TEME,UTC,SGP4,2022-06-02T16:33:06.700896,15.23592144,0.0037376,64.8643,146.0306,289.8767,69.8335,0,U,39135,999,50386,0.00027501,6.53E-05,0,6873.153,94.513,520.707,469.329,PAYLOAD,SMALL,GER,4/19/2013,TTMTR,,3477983,205205466,0 BEESAT 3,1 39135U 13015F   22153.68966089  .00006532  00000-0  27501-3 0  9990,2 39135  64.8643 146.0306 0037376 289.8767  69.8335 15.23592144503869,,,,,,,503.153,,7.615368333
2,GENERATED VIA SPACE-TRACK.ORG API,2022-06-03T02:31:39,18 SPCS,BEESAT 2,2013-015G,EARTH,TEME,UTC,SGP4,2022-06-02T17:28:50.772288,15.22638339,0.0015412,64.873,153.9665,297.8332,62.1235,0,U,39136,999,50367,0.00024736,5.60E-05,0,6876.023,94.573,508.486,487.291,PAYLOAD,SMALL,GER,4/19/2013,TTMTR,,3477983,205205715,0 BEESAT 2,1 39136U 13015G   22153.72836542  .00005598  00000-0  24736-3 0  9994,2 39136  64.8730 153.9665 0015412 297.8332  62.1235 15.22638339503676,,,,,,,506.023,,7.613778869
2,GENERATED VIA SPACE-TRACK.ORG API,2022-06-02T17:26:11,18 SPCS,GAOFEN 1,2013-018A,EARTH,TEME,UTC,SGP4,2022-06-02T16:26:27.341088,14.76512857,0.0019647,97.9181,220.1484,332.7702,177.3458,0,U,39150,999,49055,0.0056457,0.00039626,0,7018.49,97.527,654.144,626.566,PAYLOAD,LARGE,PRC,4/26/2013,JSC,,3477458,205154155,0 GAOFEN 1,1 39150U 13018A   22153.68503867  .00039626  00000-0  56457-2 0  9992,2 39150  97.9181 220.1484 0019647 332.7702 177.3458 14.76512857490551,,,,,,,648.49,,7.53610736
2,GENERATED VIA SPACE-TRACK.ORG API,2022-06-02T17:55:29,18 SPCS,NEE 01 PEGASUS,2013-018B,EARTH,TEME,UTC,SGP4,2022-06-02T12:16:56.501184,14.8090791,0.0015611,97.99,259.2268,306.2942,53.6828,0,U,39151,999,49146,0.00010597,7.67E-06,0,7004.597,97.238,637.397,615.527,PAYLOAD,SMALL,ECU,4/26/2013,JSC,,3477482,205169384,0 NEE 01 PEGASUS,1 39151U 13018B   22153.51176506  .00000767  00000-0  10597-3 0  9991,2 39151  97.9900 259.2268 0015611 306.2942  53.6828 14.80907910491464,,,,,,,634.597,,7.54357726
2,GENERATED VIA SPACE-TRACK.ORG API,2022-06-03T07:16:12,18 SPCS,PROBA V,2013-021A,EARTH,TEME,UTC,SGP4,2022-06-03T02:12:52.186752,14.23035106,0.0005194,98.3579,190.7157,124.4007,235.7664,0,U,39159,999,47128,2.43E-05,1.40E-07,0,7193.244,101.192,818.845,811.372,PAYLOAD,MEDIUM,ESA,5/7/2013,FRGUI,,3478465,205226016,0 PROBA V,1 39159U 13021A   22154.09227068  .00000014  00000-0  24280-4 0  9997,2 39159  98.3579 190.7157 0005194 124.4007 235.7664 14.23035106471287,,,,,,,823.244,,7.444002726
2,GENERATED VIA SPACE-TRACK.ORG API,2022-06-03T06:56:14,18 SPCS,VNREDSAT 1,2013-021B,EARTH,TEME,UTC,SGP4,2022-06-03T05:06:39.880512,14.62944854,0.00014,98.0778,229.8998,83.1991,276.9375,0,U,39160,999,48453,9.99E-05,4.65E-06,0,7061.818,98.432,684.672,682.695,PAYLOAD,MEDIUM,VTNM,5/7/2013,FRGUI,,3478288,205221650,0 VNREDSAT 1,1 39160U 13021B   22154.21296158  .00000465  00000-0  99899-4 0  9997,2 39160  98.0778 229.8998 0001400  83.1991 276.9375 14.62944854484533,,,,,,,691.818,,7.512952781
2,GENERATED VIA SPACE-TRACK.ORG API,2022-06-03T06:26:12,18 SPCS,ESTCUBE 1,2013-021C,EARTH,TEME,UTC,SGP4,2022-06-03T03:45:58.389120,14.72929972,0.0010505,97.9091,231.7656,104.0036,256.2335,0,U,39161,999,48736,0.00017867,1.10E-05,0,7029.867,97.764,659.117,644.347,PAYLOAD,SMALL,EST,5/7/2013,FRGUI,,3478039,205216081,0 ESTCUBE 1,1 39161U 13021C   22154.15692580  .00001098  00000-0  17867-3 0  9997,2 39161  97.9091 231.7656 0010505 104.0036 256.2335 14.72929972487368,,,,,,,659.867,,7.530006746
